SUPERVIEW NEO-2 02      
1 53130U 22082C   22214.13378159  .00002190  00000+0  89366-4 0  9991
2 53130  97.3840 221.9080 0012445 215.4335 212.9259 15.25428379  2622
CZ-2C R/B               
1 53131U 22082D   22214.26500412  .00004472  00000+0  12549-3 0  9998
2 53131  97.3594 222.1981 0047550 311.5855  48.1321 15.35963830  2651
STARLINK-4063           
1 53132U 22083A   22213.91667824 -.00040140  00000+0 -28281-3 0  9996
2 53132  53.2175 330.9961 0001531  31.3509 151.5426 15.73210176  1302
STARLINK-4154           
1 53133U 22083B   22214.25002315  .00069165  00000+0  49339-3 0  9996
2 53133  53.2178 329.3530 0002799 315.0380 313.2482 15.73186707  3118
STARLINK-4150           
1 53134U 22083C   22213.91667824 -.00000932  00000+0 -22126-5 0  9997
2 53134  53.2179 331.0011 0001686  40.5759 140.4630 15.73225012  3060
STARLINK-4023           
1 53135U 22083D   22213.91667824 -.00035072  00000+0 -24605-3 0  9993
2 53135  53.2174 331.0024 0001636  38.1136 141.7298 15.73242170  1300
STARLINK-4152           
1 53136U 22083E   22213.91667824 -.00003081  00000+0 -17517-4 0  9994
2 53136  53.2177 331.0018 0001491  30.9255 149.5530 15.73226137  3063
STARLINK-4145           
1 53137U 22083F   22213.91667824 -.00000759  00000+0 -96752-6 0  9994
2 53137  53.2182 331.0015 0003314 312.5740 229.1268 15.73204458  3066
STARLINK-4141           
1 53138U 22083G   22214.25002315  .00042127  00000+0  30281-3 0  9996
2 53138  53.2166 328.8410 0001554  38.9314 118.7078 15.73220006  3128
STARLINK-4185           
1 53139U 22083H   22214.25002315  .00071640  00000+0  51144-3 0  9990
2 53139  53.2187 329.3456 0001627  37.9896 235.1389 15.73157209  3115
STARLINK-4170           
1 53140U 22083J   22214.25002315  .00071186  00000+0  50805-3 0  9990
2 53140  53.2180 329.3442 0001376  40.0211 232.4805 15.73166735  3119
STARLINK-4103           
1 53141U 22083K   22214.25002315  .00072290  00000+0  51615-3 0  9998
2 53141  53.2180 329.3390 0001658  45.4699 230.0103 15.73150222  3113
STARLINK-4101           
1 53142U 22083L   22213.91667824  .00001776  00000+0  17080-4 0  9993
2 53142  53.2179 330.9945 0003576 309.4769 235.1537 15.73217792  3065
STARLINK-4102           
1 53143U 22083M   22213.91667824  .00000137  00000+0  53975-5 0  9998
2 53143  53.2180 330.9897 0001574  29.3800 157.7071 15.73205967  3067
STARLINK-4100           
1 53144U 22083N   22213.91667824 -.00035350  00000+0 -24821-3 0  9992
2 53144  53.2183 330.9945 0001726 353.2585 192.0397 15.73226686  3067
STARLINK-4106           
1 53145U 22083P   22213.91667824 -.00000494  00000+0  90282-6 0  9990
2 53145  53.2183 330.9885 0001689  41.1360 147.0619 15.73208797  3063
STARLINK-4099           
1 53146U 22083Q   22214.25002315  .00074115  00000+0  52888-3 0  9994
2 53146  53.2185 329.3412 0002228 325.0353 309.8846 15.73152557  3118
STARLINK-4094           
1 53147U 22083R   22213.91667824 -.00040490  00000+0 -28542-3 0  9990
2 53147  53.2178 330.9856 0001530  35.5475 153.3575 15.73202842  3062
STARLINK-4066           
1 53148U 22083S   22214.25002315 -.00001921  00000+0 -92602-5 0  9993
2 53148  53.2182 329.3368 0001470  45.7111 230.9211 15.73227844  3115
STARLINK-4021           
1 53149U 22083T   22213.91667824 -.00002718  00000+0 -14945-4 0  9996
2 53149  53.2176 330.9695 0001611  31.3366 165.1895 15.73211893  3068
STARLINK-4038           
1 53150U 22083U   22214.25002315  .00071938  00000+0  51331-3 0  9991
2 53150  53.2179 329.3321 0001356  36.4133 242.0358 15.73167508  3113
STARLINK-4040           
1 53151U 22083V   22213.91667824 -.00108535  00000+0 -77736-3 0  9999
2 53151  53.2185 330.9835 0001648  44.5038 146.7495 15.73245256  1305
STARLINK-4045           
1 53152U 22083W   22213.91667824  .00002020  00000+0  18786-4 0  9991
2 53152  53.2185 330.9860 0001662  28.4708 161.5153 15.73227870  3068
STARLINK-4098           
1 53153U 22083X   22213.91667824 -.00023033  00000+0 -15996-3 0  9990
2 53153  53.2182 330.9811 0001588  35.3558 156.4888 15.73224630  3068
STARLINK-4077           
1 53154U 22083Y   22213.91667824 -.00002500  00000+0 -13395-4 0  9999
2 53154  53.2170 330.9797 0001412  34.7388 155.9187 15.73202898  3067
STARLINK-4088           
1 53155U 22083Z   22214.25002315  .00027595  00000+0  20023-3 0  9990
2 53155  53.2183 329.3253 0003245 309.8910 332.6889 15.73215403  3119
STARLINK-4087           
1 53156U 22083AA  22214.25002315  .00029094  00000+0  21105-3 0  9999
2 53156  53.2184 329.3265 0001651  39.7275 242.3238 15.73193804  3111
STARLINK-4093           
1 53157U 22083AB  22213.91667824 -.00037220  00000+0 -26165-3 0  9997
2 53157  53.2182 330.9749 0001557  31.6605 163.1780 15.73225745  3064
STARLINK-4054           
1 53158U 22083AC  22214.25002315  .00073535  00000+0  52459-3 0  9996
2 53158  53.2180 329.3267 0001532  41.5030 239.9321 15.73163547  3115
STARLINK-4111           
1 53159U 22083AD  22213.91667824 -.00024641  00000+0 -17157-3 0  9993
2 53159  53.2187 330.9739 0002907 314.8177 241.2240 15.73204522  3069
STARLINK-4096           
1 53160U 22083AE  22214.25002315  .00071424  00000+0  50975-3 0  9995
2 53160  53.2190 329.3261 0001489  36.4971 246.7461 15.73165234  3117
STARLINK-4055           
1 53161U 22083AF  22214.25002315 -.00033717  00000+0 -23637-3 0  9996
2 53161  53.2182 329.3161 0001710  40.6355 246.1511 15.73238880  3116
STARLINK-4114           
1 53162U 22083AG  22213.91667824  .00000080  00000+0  49874-5 0  9999
2 53162  53.2183 330.9738 0001597  26.4740 168.9318 15.73202243  3063
STARLINK-4104           
1 53163U 22083AH  22213.91667824 -.00000244  00000+0  26785-5 0  9999
2 53163  53.2181 330.9661 0001592  42.6555 156.3383 15.73207505  3065
STARLINK-4116           
1 53164U 22083AJ  22214.25002315 -.00007984  00000+0 -52419-4 0  9997
2 53164  53.2180 329.3162 0001469  43.2943 242.8739 15.73242089  3112
STARLINK-4090           
1 53165U 22083AK  22214.25002315  .00071214  00000+0  50839-3 0  9996
2 53165  53.2180 329.3106 0001542  47.1013 242.1028 15.73160172  3110
STARLINK-4110           
1 53166U 22083AL  22213.91667824 -.00106800  00000+0 -76432-3 0  9990
2 53166  53.2179 330.9664 0001593  36.9785 161.3720 15.73257120  1304
STARLINK-3683           
1 53167U 22083AM  22213.91667824  .00000138  00000+0  54042-5 0  9991
2 53167  53.2174 330.9561 0001613  29.6889 173.4943 15.73193625  3068
STARLINK-4105           
1 53168U 22083AN  22214.25002315  .00029271  00000+0  21215-3 0  9991
2 53168  53.2185 329.3136 0001302  38.7145 249.8331 15.73210882  3112
STARLINK-4117           
1 53169U 22083AP  22214.25002315  .00071360  00000+0  50952-3 0  9998
2 53169  53.2184 329.3074 0002362 318.4928 333.0615 15.73153724  3119
STARLINK-4095           
1 53170U 22083AQ  22213.91667824 -.00036455  00000+0 -25632-3 0  9999
2 53170  53.2185 330.9637 0001657  38.3696 162.4373 15.73210248  1300
STARLINK-4052           
1 53171U 22083AR  22213.91667824  .00000602  00000+0  87071-5 0  9990
2 53171  53.2180 330.9486 0001448  31.7880 176.0713 15.73210217  3068
STARLINK-4299           
1 53172U 22083AS  22213.91667824 -.00032033  00000+0 -22452-3 0  9996
2 53172  53.2182 330.9613 0001745  26.3786 174.9936 15.73215671  3061
STARLINK-4300           
1 53173U 22083AT  22214.25002315 -.00005636  00000+0 -35714-4 0  9998
2 53173  53.2184 329.3031 0001374 353.1578 300.7364 15.73232396  3111
STARLINK-4205           
1 53174U 22083AU  22213.91667824 -.00000464  00000+0  11283-5 0  9992
2 53174  53.2182 330.9603 0002792 313.8186 248.1121 15.73222655  1308
STARLINK-4292           
1 53175U 22083AV  22213.91667824 -.00024901  00000+0 -17347-3 0  9991
2 53175  53.2184 330.9469 0001452  17.4907 191.6442 15.73206732  3062
STARLINK-4294           
1 53176U 22083AW  22214.25002315  .00062939  00000+0  44991-3 0  9994
2 53176  53.2182 329.3042 0001573  26.2564 266.5041 15.73178624  3112
STARLINK-4298           
1 53177U 22083AX  22213.91667824  .00000590  00000+0  86179-5 0  9990
2 53177  53.2188 330.9544 0001657 341.9540 224.1192 15.73217580  3064
STARLINK-4280           
1 53178U 22083AY  22213.91667824 -.00071101  00000+0 -50498-3 0  9992
2 53178  53.2174 330.4929 0001351  52.5174  17.2827 15.73268377  3067
STARLINK-4276           
1 53179U 22083AZ  22213.91667824 -.00053149  00000+0 -37625-3 0  9992
2 53179  53.2185 330.9448 0001672  38.4615 171.8782 15.73224310  3066
STARLINK-4258           
1 53180U 22083BA  22214.25002315  .00073966  00000+0  52750-3 0  9993
2 53180  53.2187 329.3022 0001764 332.8229 321.7605 15.73168483  3118
STARLINK-4273           
1 53181U 22083BB  22213.91667824 -.00000506  00000+0  81460-6 0  9992
2 53181  53.2185 330.9514 0001457  30.9876 176.2471 15.73223529  3065
STARLINK-4278           
1 53182U 22083BC  22213.91667824 -.00014838  00000+0 -10146-3 0  9997
2 53182  53.2183 330.9509 0001697  34.0541 172.7068 15.73205338  3069
STARLINK-4268           
1 53183U 22083BD  22213.91667824 -.00036578  00000+0 -25692-3 0  9995
2 53183  53.2184 330.9481 0002024 329.6943 238.8103 15.73234824  1305
STARLINK-4257           
1 53184U 22083BE  22213.91667824 -.00015027  00000+0 -10281-3 0  9990
2 53184  53.2188 330.9467 0001545  22.8266 186.9128 15.73205768  3061
FALCON 9 DEB            
1 53185U 22083BF  22213.73369810  .01021513  11695-4  63723-3 0  9997
2 53185  53.2184 329.4010 0044304  89.6996 270.9119 16.14725884  2432
FALCON 9 DEB            
1 53186U 22083BG  22214.03929494  .00919426  11702-4  57537-3 0  9995
2 53186  53.2118 327.7380 0040377  90.3306 270.2359 16.15092485  2480
FALCON 9 DEB            
1 53187U 22083BH  22214.14910119  .01039274  11764-4  55719-3 0  9995
2 53187  53.2158 326.9855 0037386  82.5590 277.9694 16.17364571  2506
FALCON 9 DEB            
1 53188U 22083BJ  22214.14516375  .01319855  11807-4  62898-3 0  9992
2 53188  53.2169 326.9585 0035947  82.1806 278.3313 16.18961552  2502
